#dP2022  1 12  0  0  0.00000000      96 __u+U ITR00 FIT  IAC
## 2192 259200.00000000   900.00000000 59591 0.0000000000000
+  124   C01C02C03C04C05C06C07C08C09C10C11C12C13C14C16C19C20
+        C21C22C23C24C25C26C27C28C29C30C32C33C34C35C36C37C38
+        C39C40C41C42C43C44C45C46C60E01E02E03E04E05E07E08E09
+        E11E12E13E14E15E18E19E21E24E25E26E27E30E31E33E36G01
+        G02G03G04G05G06G07G08G09G10G12G13G14G15G16G17G18G19
+        G20G21G22G23G24G25G26G27G28G29G30G31G32J01J02J03R01
+        R02R03R04R05R06R07R08R09R10R11R12R13R14R15R17R18R19
+        R20R21R22R23R24  0  0  0  0  0  0  0  0  0  0  0  0
++        13 12 13 13 12  9  9  9  8  9  8  9  9  8  9  7  7
++         7  7  7  7  7  7  7  7  7  7  7  7  7  7  7  7  8
++         8  8  7  7  7  7  7  7 12  4  4  4  4  4  4  4  5
++         5  4  4  5  4  4  4  4  4  4  4  4  4  4  4  4  3
++         4  3  3  4  4  4  4  4  3  4  4  3  4  4  4  4  4
++         4  3  4  3  3  4  4  3  4  4  3  4  3  9  8  8  7
++         6  5  5  5 13  6  6  5 13  7  6  7  6  6  6  6  7
++         7  6  7 13  6  0  0  0  0  0  0  0  0  0  0  0  0
%c M  cc GPS ccc cccc cccc cccc cccc ccccc ccccc ccccc ccccc
%c cc cc ccc ccc cccc cccc cccc cccc ccccc ccccc ccccc ccccc
%f  0.0000000  0.000000000  0.00000000000  0.000000000000000
%f  0.0000000  0.000000000  0.00000000000  0.000000000000000
%i    0    0    0    0      0      0      0      0         0
%i    0    0    0    0      0      0      0      0         0
/* INFORMATION & ANALYSIS CENTER (IAC)            RAPID DATA
/* S/V CLOCKS ARE ALIGNED TO GNSS TIME                      
/* G:C1WC2W R:C1PC2P E:C1XC5X C:C2IC6I J:C1CC2S             
/* PCV:IGS14_2186 OL/AL:FES2004  NONE     YN ORB:CoN CLK:CoN
*  2022 01 12  2  0  0.00000000
PC01 -34354.709981  24430.461236   -256.998395   -246.834793
PC02   4428.150162  41960.747074    744.064726    719.911976
PC03 -14801.449228  39517.493281   -115.661916    560.949676
PC04 -39617.810096  14411.170841   -631.548754   -105.083798
PC05  21924.359210  36025.147125   1169.992638   -516.847521
PC06  -2240.047222  27179.003454  32188.608932   -136.835226
PC07 -16651.209969  31331.626510 -22855.733685     10.708014
PC08  -7312.711959  40786.653048  -7274.628611     52.121317
PC09   5451.175510  30768.431596  28838.566980   -427.110325
PC10 -10301.873365  31159.827558 -26440.303115    139.327040
PC11  21585.834826   1859.565151  17641.386717   -276.166909
PC12  23082.972112  15557.235178   1910.940944   -433.248066
PC13  -3196.357933  41858.378658  -1581.030839   -149.668375
PC14  26190.109300  -8192.329957   4943.047660    472.292812
PC16  -5535.338684  25003.052774  33669.719143     52.998307
PC19 -23558.502971  14248.284406   4615.079622    911.042062
PC20 -25063.835065   2311.266156 -12063.057082   -804.140611
PC21  11535.721419  11794.711958  22518.749959   -961.938424
PC22  -8409.062209  18379.489459  19249.060030   -960.340613
PC23   4279.865460 -27514.136232  -1936.629097   -967.503450
PC24  15767.812216   4799.426221 -22530.971026   -945.945548
PC25  13618.699458 -17438.031929 -17030.408015   -796.171510
PC26   9151.442480  21571.795934 -15138.333336    794.784504
PC27 -18505.118541 -19680.478693   6949.878279    659.921833
PC28  -2007.135808 -18995.522561  20351.659535     19.784447
PC29 -15641.936952   7638.649936 -21812.587040    500.183600
PC30 -24647.990746  -8506.603132  -9912.489671    490.945765
PC32 -11585.919904 -11731.951829 -22501.377475   -957.883698
PC33  23520.107242 -14319.826105  -4492.809843   -955.478384
PC34  24566.366818   7832.687979  10698.469050   -493.869226
PC35   1988.192914  18748.115753 -20588.045921     88.837892
PC36 -14190.728176  16640.220550  17345.911564   -862.923474
PC37  -8000.424206 -22591.683794  14327.672851   -938.408909
PC38 -11652.633084  37824.592943 -14285.999959    203.411357
PC39  -8844.418864  22754.840592  34384.964794     34.620902
PC40 -24433.835591  26154.834125 -22410.525652    234.786087
PC41   8781.020132 -18450.280517 -18961.823017   -922.514546
PC42  24720.658581  -1528.310468  12887.213793   -929.408932
PC43  16263.589115  -7127.426471  21530.066754   -948.597097
PC44  19032.471323  19148.233985  -7137.653485    528.676339
PC45  -4094.358653  27533.775762   1727.062460    651.423226
PC46 -15870.795890  -3304.120772  22713.181290   -109.791776
PC60   7293.860597  41506.872707  -1351.441387     -0.280435
PE01   -522.134586 -22339.892025  19418.764416   -557.705418
PE02    681.920327  22231.726964 -19521.348221    273.002833
PE03  10808.029783  16476.342636  22078.819933   -516.117769
PE04 -26941.846812  -8405.961736  -8917.960282   -940.792955
PE05 -11978.008512  15019.719666  22515.274084   -219.414975
PE07  27492.224538  -4837.893810  -9839.493133   -627.446680
PE08  27173.801936   7996.819252   8575.195961   5873.582691
PE09 -27382.782650   5022.739730  10068.831346   5398.208080
PE11 -15865.972612   4088.258589 -24651.650345   4697.783952
PE12 -19074.080138 -16942.901701 -14989.445544   4814.603396
PE13  16081.054743  -3387.213942  24630.302981    425.555971
PE14 -26920.623154   6422.529994 -16470.833602  -1707.034702
PE15  19076.612058  17021.420285  14933.707210    769.842655
PE18  21794.319146  -1600.157791   9549.962993  -1878.999757
PE19  -8053.507025 -16754.888842 -23032.596442    475.289744
PE21  14210.283647 -25633.853035   4186.214729   -710.705440
PE24 -21725.825679  13163.921246  15155.123912  -1330.310415
PE25 -14362.873432  25570.442795  -3947.692498   -559.967841
PE26   3071.901301 -22422.442169  19090.589224   -677.315908
PE27  21621.665418 -14354.217875 -14250.968436   -207.528413
PE30  15627.964625   6508.619257 -24293.176207   -184.690669
PE31 -16247.880808  -5305.386373  24171.112493   -490.630809
PE33 -10797.601655 -27327.811109   3557.803755   -460.486316
PE36  -3643.159963  21701.325290 -19790.361658   -316.802589
PG01  14898.809486   -371.428804  21740.501438    459.633822
PG02 -14714.053624 -19728.713828  -9172.752022   -648.389350
PG03  20950.826750  -9819.565328  12845.154638    -74.829745
PG04  24761.258198   -562.301521  -9698.463556   -195.356252
PG05 -15409.081011  -4882.094834 -21261.900154    -67.589242
PG06  -4982.593201 -25712.794925   4257.133743    168.347138
PG07   8247.984449 -17058.905149 -18031.207842    300.862750
PG08  25990.053063   6194.850767  -1299.697628    -51.792432
PG09  17167.953168  -9507.189552 -17984.741947   -358.184531
PG10  -8640.533673  21823.781976  12273.868250   -291.326850
PG12 -21142.877508   6395.047050  14388.071315   -154.497434
PG13 -21850.356489 -13450.198521  -7327.823387    243.933289
PG14   9970.164743 -21652.816606  11641.864126    -69.349018
PG15 -26490.786096  -3519.381870  -1270.207132    -92.213874
PG16  12336.927248   9102.096403 -21981.389323   -454.326339
PG17   2836.670583 -14765.928308  22333.311956    560.202354
PG18  -7819.283010  17685.330335 -18164.367142    262.542036
PG19  -6618.932827 -16250.053802  19734.420476    104.387151
PG20  -8358.389004 -14530.833295 -20659.996531    517.214784
PG21  17679.528205   9020.270165  18612.656773    155.916656
PG22  18675.307057  -1992.125278  18869.401217   -419.612447
PG23 -16656.221181  20576.119394   1398.735646     12.103916
PG24 -17175.773257  -3679.150144  19740.081825    277.130392
PG25 -19791.041728  16746.514616   4759.215437    269.574630
PG26   2002.028595  18844.476184 -18563.593797    173.560884
PG27  20820.962441  12543.807057 -11344.663570     63.149740
PG28   3330.002795 -19711.067111  18126.689020    423.978342
PG29 -20260.226706   5301.784488 -16413.419273   -466.158057
PG30   1770.989895 -23798.482296 -11331.731316   -506.099966
PG31   6233.163363  25503.938924   1450.894199   -159.518388
PG32   2524.074869  15871.686721  21297.107705    -49.117664
PJ01 -32531.874841  23444.032344  18076.947740    299.404405
PJ02 -33302.406373  24999.613880  11717.436084     -0.739272
PJ03 -22171.218729  19601.190484 -25393.428026     -0.144246
PR01 -16345.587757  -5025.971758 -18932.056792      7.199787
PR02 -24893.451318   5162.026581  -1553.774888    506.220586
PR03 -17104.640122  11519.848496  15012.356826     49.769362
PR04    -15.534463  11070.011266  23003.946786    123.102661
PR05  17167.812235   4699.228794  18291.739290     85.805764
PR06  24697.410127  -6411.703756    574.506414    -26.557199
PR07  16676.141573 -11594.939241 -15430.153041     30.585433
PR08    -82.144272 -11148.780428 -22891.432122    -63.029432
PR09  12688.577114  -7725.795120 -20703.043646     33.613181
PR10  10448.515557 -21427.047313  -9196.976076    -78.831888
PR11   2173.113220 -23824.591763   8846.065153     47.370398
PR12  -7491.328943 -11362.399428  21600.299257    294.190593
PR13 -12382.006761   6699.352298  21249.843932    -16.928829
PR14 -10189.166590  22015.434101   7907.987002     73.118652
PR15  -2059.221654  23588.606694  -9466.455289     98.958031
PR17  -4896.390772   9979.832899 -22939.773573    491.797660
PR18   8918.590051  19032.489911 -14470.672001    103.552922
PR19  17126.573645  18894.112841    567.843428   -174.104723
PR20  16436.735897   6152.156036  18544.480506    -62.896109
PR21   3699.072562 -10999.059563  22725.412628   -269.386021
PR22  -9414.941278 -19233.402470  13776.101453   -157.509279
PR23 -18801.626998 -15857.227846  -6755.427841    -26.473894
PR24 -16542.608031  -4945.862737 -18757.909891     75.269357
EOF
